# From MPEC 2022-S20
C/1995 O1 (Hale-Bopp),e,89.3814,282.5376,130.4091,176.8707,0.0004190,0.99496857,0.0000,03/29.5567/1997,2000,g -2.0,4.0
# From NK 1615
P/1996 R2 (Lagerkvist),e,2.6010,40.0086,333.4155,3.774441,0.1344080,0.31460616,196.3299,02/13.0/2023,2000,g 11.5,4.0
# From MPC 75703
P/1998 VS24 (LINEAR),e,5.0265,159.0369,244.6517,4.524740,0.1024032,0.24332245,189.3594,02/13.0/2023,2000,g 13.0,2.0
# From NK 731
P/1999 RO28 (LONEOS),e,7.5649,137.8632,231.3138,3.426401,0.1553985,0.67253677,206.1816,02/13.0/2023,2000,g 20.0,2.0
# From MPC 75704
P/1999 XN120 (Catalina),e,5.0299,285.2966,161.6696,4.178981,0.1153715,0.21050162,239.5615,02/13.0/2023,2000,g 13.5,2.0
# From NK 744
P/2000 R2 (LINEAR),e,11.6856,160.2854,176.5962,3.467852,0.1526206,0.53131751,203.9153,02/13.0/2023,2000,g 18.0,4.0
# From MPC 43019
P/2001 H5 (NEAT),e,8.3670,328.6838,224.7070,6.095720,0.0654887,0.59820735,175.5426,02/13.0/2023,2000,g 12.0,4.0
# From MPC 75704
P/2001 Q6 (NEAT),e,56.9114,22.1853,42.9415,7.960672,0.0438813,0.82343021,343.3097,02/13.0/2023,2000,g 13.5,4.0
# From MPC 47727
P/2002 EJ57 (LINEAR),e,4.9786,330.2982,167.2758,6.461952,0.0600010,0.59251855,102.0981,02/13.0/2023,2000,g 12.5,4.0
# From MPC109588
P/2002 T6 (NEAT-LINEAR),e,10.8550,206.0518,219.4791,7.744363,0.0457326,0.56313342,336.1127,02/13.0/2023,2000,g 10.5,4.0
# From MPC 75007
C/2002 VQ94 (LINEAR),e,70.7027,35.1535,99.9468,184.3520,0.0003938,0.96311749,2.4499,02/13.0/2023,2000,g  9.5,2.0
# From MPC 50354
P/2003 F2 (NEAT),e,11.6139,358.9831,192.2669,6.501220,0.0594582,0.54130512,70.6943,02/13.0/2023,2000,g 16.5,2.0
# From MPC 50139
P/2003 QX29 (NEAT),e,11.3947,264.5046,37.6873,8.013295,0.0434498,0.47238912,320.6458,02/13.0/2023,2000,g  8.5,4.0
# From MPC105235
P/2003 T12 (SOHO),e,11.0222,174.5843,219.7568,2.585253,0.2371098,0.77020716,239.8478,02/13.0/2023,2000,g 17.0,4.0
# From MPC 54558
P/2004 DO29 (Spacewatch-LINEAR),e,14.5301,147.3785,40.4753,7.298577,0.0499858,0.44142012,336.1805,02/13.0/2023,2000,g 13.5,2.0
# From MPEC 2022-YN2
P/2004 FY140 (LINEAR),e,2.1619,327.2708,254.2338,4.969226,0.0889756,0.19158179,229.0421,02/13.0/2023,2000,g 12.5,2.0
# From MPC 53304
P/2004 R3 (LINEAR-NEAT),e,12.7829,305.3028,37.6276,4.761291,0.0948674,0.25531851,48.4776,02/13.0/2023,2000,g 14.5,4.0
# From MPC 55521
P/2004 V3 (Siding Spring),e,50.4439,356.1280,322.5114,7.127742,0.0517936,0.44580495,345.3311,02/13.0/2023,2000,g 11.5,4.0
# From MPC 75705
P/2004 V5 (LINEAR-Hill),e,19.3458,47.7763,87.5355,7.993634,0.0436102,0.44519436,288.4008,02/13.0/2023,2000,g  8.0,4.0
# From MPC 54164
P/2005 E1 (Tubbiolo),e,4.2627,335.5778,193.8597,7.052930,0.0526199,0.37577414,348.0488,02/13.0/2023,2000,g 10.0,4.0
# From MPC 79019
P/2005 J1 (McNaught),e,31.7347,268.8290,338.9165,3.572271,0.1459780,0.56895112,231.5337,02/13.0/2023,2000,g 16.5,4.0
# From MPC 74246
P/2005 L1 (McNaught),e,7.7145,138.1192,150.4646,3.998850,0.1232541,0.21387722,57.1285,02/13.0/2023,2000,g  9.5,4.0
# From MPC 75706
P/2005 S2 (Skiff),e,3.1356,161.2220,229.5204,8.002418,0.0435384,0.19871045,265.7149,02/13.0/2023,2000,g  7.5,4.0
# From MPC 75706
P/2005 SB216 (LONEOS),e,24.1171,1.1196,83.2266,7.148022,0.0515733,0.46484452,304.9598,02/13.0/2023,2000,g 12.0,2.0
# From MPC 73461
P/2005 T3 (Read),e,6.2242,27.6555,6.7046,7.588561,0.0471482,0.17549014,299.7229,02/13.0/2023,2000,g  9.0,4.0
# From MPC 73461
P/2005 T4 (SWAN),e,160.2744,25.9350,41.8592,9.358037,0.0344292,0.92986217,218.0733,02/13.0/2023,2000,g 15.0,4.0
# From MPC 75706
P/2005 T5 (Broughton),e,21.3815,57.0027,304.7197,7.277994,0.0501980,0.55263374,317.2143,02/13.0/2023,2000,g 11.0,4.0
# From MPC 75707
P/2006 HR30 (Siding Spring),e,31.8714,309.8099,117.4078,7.807752,0.0451768,0.84326279,266.7072,02/13.0/2023,2000,g 11.0,4.0
# From MPC 75707
P/2007 C2 (Catalina),e,8.6051,275.2748,180.1803,7.001216,0.0532039,0.47234841,299.6790,02/13.0/2023,2000,g 10.0,4.0
# From MPC 84315
C/2007 D1 (LINEAR),e,41.5019,171.2237,339.7612,1168,0.0000247,0.99248233,0.0000,06/07.4277/2007,2000,g  3.5,4.0
# From MPC 82314
P/2007 K2 (Gibbs),e,7.6275,188.6344,347.3281,7.279008,0.0501875,0.68329880,288.9586,02/13.0/2023,2000,g 14.0,4.0
# From MPC 60925
P/2007 Q2 (Gilmore),e,10.2025,172.1546,162.8709,5.658533,0.0732231,0.66992447,59.1711,02/13.0/2023,2000,g 16.0,4.0
# From MPC 73462
P/2007 S1 (Zhao),e,5.9610,141.3436,245.1989,3.818469,0.1320901,0.33881227,17.0674,02/13.0/2023,2000,g 13.0,4.0
# From MPC 61994
P/2007 T2 (Kowalski),e,9.7517,3.3757,359.6735,3.045170,0.1854756,0.78568487,308.5102,02/13.0/2023,2000,g 18.5,4.0
# From MPC 75709
P/2008 L2 (Hill),e,25.8683,218.0159,141.2634,6.030209,0.0665588,0.61362377,354.2062,02/13.0/2023,2000,g 12.5,4.0
# From MPC 64114
P/2008 O3 (Boattini),e,32.3410,47.5614,341.1846,8.214173,0.0418657,0.69647734,224.7004,02/13.0/2023,2000,g 13.0,4.0
# From MPC 75710
P/2008 Y3 (McNaught),e,38.7811,262.8710,238.0165,8.047189,0.0431755,0.44607797,223.3860,02/13.0/2023,2000,g  8.5,4.0
# From MPC 75710
P/2009 B1 (Boattini),e,22.2407,297.0717,128.9174,6.736443,0.0563713,0.63575859,290.4639,02/13.0/2023,2000,g 13.0,4.0
# From MPC 66466
C/2009 G1 (STEREO),e,108.4339,120.5990,175.5216,469.1353,0.0000970,0.99757189,0.0000,04/18.8490/2009,2000,g  9.0,4.0
# From MPC 75710
P/2009 O3 (Hill),e,16.2889,183.6849,154.4985,7.766832,0.0455342,0.68764115,227.9769,02/13.0/2023,2000,g 12.5,4.0
# From MPC 68902
P/2009 Q5 (McNaught),e,40.9800,160.2664,209.1314,7.428541,0.0486798,0.60991869,238.4151,02/13.0/2023,2000,g 10.0,4.0
# From MPC112389
P/2009 T2 (La Sagra),e,27.6109,215.9104,216.3245,7.717347,0.0459729,0.76667557,220.2546,02/13.0/2023,2000,g 14.0,4.0
# From MPC105235
P/2009 WX51 (Catalina),e,9.5953,31.5553,118.2668,3.082770,0.1820926,0.73931552,149.1888,02/13.0/2023,2000,g 19.0,2.0
# From MPC 74247
P/2009 Y2 (Kowalski),e,29.9682,262.0484,172.1410,6.548908,0.0588099,0.63693837,278.3663,02/13.0/2023,2000,g 13.0,4.0
# From MPC 75711
P/2010 A3 (Hill),e,14.8149,63.6132,42.2934,6.088411,0.0656067,0.73382100,310.2888,02/13.0/2023,2000,g 14.0,4.0
# From MPC 75008
P/2010 C1 (Scotti),e,9.1232,141.8543,3.2871,7.106979,0.0520207,0.26096278,252.7935,02/13.0/2023,2000,g  9.5,4.0
# From MPC 75008
P/2010 D2 (WISE),e,57.1036,319.8811,119.9184,6.721969,0.0565535,0.45151146,269.0925,02/13.0/2023,2000,g 16.0,4.0
# From MPC 75009
P/2010 E2 (Jarnac),e,15.3860,177.8205,8.2840,8.640141,0.0388081,0.71945244,182.8212,02/13.0/2023,2000,g 14.0,4.0
# From MPC 72851
P/2010 H2 (Vales),e,14.2799,64.1866,128.0196,3.831887,0.1313969,0.19681668,260.6876,02/13.0/2023,2000,g  6.0,4.0
# From MPC 70361
P/2010 H3 (SOHO),e,23.0984,77.1220,26.1180,3.036158,0.1863020,0.98540664,0.0000,02/07.8489/2021,2000,g 20.0,2.0
# From MPC 73463
P/2010 H4 (Scotti),e,2.3178,44.7259,179.2437,6.602431,0.0580963,0.26605551,269.4709,02/13.0/2023,2000,g 10.5,4.0
# From MPC 74637
P/2010 H5 (Scotti),e,14.0568,24.7922,174.6211,7.172617,0.0513083,0.15253987,242.1781,02/13.0/2023,2000,g 13.0,2.0
# From MPC 98558
P/2010 J3 (McMillan),e,13.2588,106.4808,157.5629,8.981761,0.0366152,0.72525591,166.8375,02/13.0/2023,2000,g 11.0,4.0
# From MPC 84315
P/2010 JC81 (WISE),e,38.8302,30.8715,12.4340,8.105161,0.0427131,0.77804316,184.1159,02/13.0/2023,2000,g  9.0,4.0
# From MPC 74248
P/2010 T2 (PANSTARRS),e,7.8909,58.4752,352.4276,5.585073,0.0746725,0.32470989,330.5207,02/13.0/2023,2000,g 11.5,4.0
# From MPEC 2023-B57
P/2010 TO20 (LINEAR-Grauer),e,2.4788,43.2797,267.5614,5.832633,0.0699692,0.05565716,5.3628,02/13.0/2023,2000,g  9.0,4.0
# From MPC 82316
P/2010 U1 (Boattini),e,8.2220,280.6750,86.3332,6.499613,0.0594803,0.24918402,282.5871,02/13.0/2023,2000,g  9.5,4.0
# From MPEC 2022-YN2
C/2010 U3 (Boattini),e,55.5602,42.9910,88.0372,2810,0.0000066,0.99699651,0.0000,02/25.3952/2019,2000,g  1.0,4.0
# From MPC 79021
P/2010 UH55 (Spacewatch),e,8.0379,232.8997,225.1476,6.654426,0.0574167,0.56390421,248.7599,02/13.0/2023,2000,g 11.0,4.0
# From MPC 75009
P/2010 WK (LINEAR),e,11.4017,11.3315,40.9932,5.762120,0.0712575,0.69058084,322.6360,02/13.0/2023,2000,g 14.5,2.0
# From MPC 84021
P/2011 C2 (Gibbs),e,10.8877,12.1199,160.4085,7.412681,0.0488361,0.26927695,199.2102,02/13.0/2023,2000,g  9.0,4.0
# From MPC 79866
P/2011 FR143 (Lemmon),e,15.9757,190.9492,349.8896,6.864812,0.0547975,0.45083325,240.0980,02/13.0/2023,2000,g 14.0,2.0
# From MPC 82317
P/2011 JB15 (Spacewatch-Boattini),e,19.1451,153.5948,111.0195,7.368377,0.0492772,0.31562019,199.4546,02/13.0/2023,2000,g  9.0,4.0
# From MPC 87913
P/2011 N1 (ASH),e,35.7757,77.5762,330.4069,6.243452,0.0631782,0.54518499,247.4459,02/13.0/2023,2000,g 11.5,4.0
# From MPC 75714
P/2011 NO1 (Elenin),e,15.2446,295.8268,263.7040,5.533627,0.0757163,0.77468919,334.4845,02/13.0/2023,2000,g 15.0,4.0
# From MPEC 2022-ED3
P/2011 P1 (McNaught),e,5.6604,4.2303,349.1762,7.458684,0.0483850,0.32763105,221.4475,02/13.0/2023,2000,g  9.0,4.0
# From MPEC 2022-HC2
P/2011 S1 (Gibbs),e,2.6881,218.8208,192.5479,8.583705,0.0391915,0.20163647,121.5944,02/13.0/2023,2000,g  8.0,4.0
# From MPC 79022
P/2011 UA134 (Spacewatch-PANSTARRS),e,10.4403,40.3967,32.4072,5.609974,0.0741759,0.62988098,305.4855,02/13.0/2023,2000,g 17.5,4.0
# From MPC 77406
P/2011 V1 (Boattini),e,7.3750,46.7769,269.3894,3.857539,0.1300884,0.54992937,207.4627,02/13.0/2023,2000,g 15.5,4.0
# From MPC 82718
P/2011 W1 (PANSTARRS),e,3.7186,161.7849,282.8034,4.667331,0.0977465,0.28819841,36.1628,02/13.0/2023,2000,g 11.5,4.0
# From MPC 79342
P/2011 Y2 (Boattini),e,6.3798,309.3181,131.9689,6.237290,0.0632718,0.71048184,252.8949,02/13.0/2023,2000,g 15.0,4.0
# From MPEC 2022-K19
P/2012 B1 (PANSTARRS),e,7.6102,36.2165,162.3343,6.532192,0.0590358,0.40905619,207.0272,02/13.0/2023,2000,g  9.0,4.0
# From MPC 78590
P/2012 C3 (PANSTARRS),e,9.0920,135.3677,344.9542,9.748681,0.0323806,0.63011148,359.9758,10/06.0/2011,2000,g 13.0,4.0
# From MPC 84931
P/2012 F2 (PANSTARRS),e,14.6989,226.9748,33.3138,6.337035,0.0617838,0.54082168,222.3548,02/13.0/2023,2000,g 12.0,4.0
# From MPEC 2022-ED3
P/2012 G1 (PANSTARRS),e,12.1714,283.2713,266.1133,4.164966,0.1159543,0.32924998,100.4208,02/13.0/2023,2000,g 15.0,4.0
# From MPC 80898
